[{"OBJECT_NAME":"ONEWEB-0620","OBJECT_ID":"2023-004X","EPOCH":"2026-03-09T22:51:28.891008","MEAN_MOTION":13.11417395,"ECCENTRICITY":0.00021399,"INCLINATION":87.8859,"RA_OF_ASC_NODE":40.8095,"ARG_OF_PERICENTER":80.0166,"MEAN_ANOMALY":280.1204,"EPHEMERIS_TYPE":0,"CLASSIFICATION_TYPE":"U","NORAD_CAT_ID":55161,"ELEMENT_SET_NO":999,"REV_AT_EPOCH":15282,"BSTAR":-0.0011976443,"MEAN_MOTION_DOT":-4.12e-6,"MEAN_MOTION_DDOT":0},{"OBJECT_NAME":"DELTA 1 DEB","OBJECT_ID":"1975-052KJ","EPOCH":"2026-03-09T05:38:01.155840","MEAN_MOTION":13.24765022,"ECCENTRICITY":0.01344329,"INCLINATION":99.702,"RA_OF_ASC_NODE":218.3223,"ARG_OF_PERICENTER":352.6338,"MEAN_ANOMALY":128.6471,"EPHEMERIS_TYPE":0,"CLASSIFICATION_TYPE":"U","NORAD_CAT_ID":26830,"ELEMENT_SET_NO":999,"REV_AT_EPOCH":66150,"BSTAR":0.0019694474,"MEAN_MOTION_DOT":8.52e-6,"MEAN_MOTION_DDOT":0}]
